SL-14 R/B               
1 16792U 86046B   25346.98398582  .00000835  00000+0  93554-4 0  9996
2 16792  82.4810 162.0835 0023815 151.4489 208.8037 14.85485120113535
SL-14 R/B               
1 16882U 86055B   25346.99337112  .00000717  00000+0  80091-4 0  9990
2 16882  82.5203 208.1346 0017477 258.5076 222.4206 14.85531352106495
AJISAI (EGS)            
1 16908U 86061A   25347.01092103 -.00000086  00000+0  77907-4 0  9990
2 16908  50.0113 359.8833 0011292  66.5740 123.6113 12.44514291457206
COSMOS 1812             
1 17295U 87003A   25346.92098212  .00127296  00000+0  82686-3 0  9994
2 17295  82.4866 291.8204 0007210  86.9311 273.2779 15.75550147130689
SL-14 R/B               
1 17567U 87024B   25346.98148981  .00000764  00000+0  84361-4 0  9997
2 17567  82.5274 174.2274 0018091 183.3828 176.7269 14.86023971 75253
COSMOS 1833             
1 17589U 87027A   25346.85936646  .00000170  00000+0  11651-3 0  9995
2 17589  70.9138 148.5258 0022533 331.5529  28.4360 14.13021554998045
SL-16 R/B               
1 17590U 87027B   25346.73187158  .00000037  00000+0  42207-4 0  9994
2 17590  71.0029  99.7346 0007404 259.4131 100.6159 14.17152154  3029
SL-14 R/B               
1 17912U 87038B   25346.79716630  .00000673  00000+0  75333-4 0  9995
2 17912  82.5017  18.6470 0020879  91.8588 268.5020 14.85261324 66333
COSMOS 1844             
1 17973U 87041A   25346.98628736 -.00000026  00000+0  11794-4 0  9990
2 17973  70.8974 217.0518 0030072 156.7405 203.5086 14.14526116991327
SL-14 R/B               
1 18153U 87055B   25346.72166971  .00000818  00000+0  91663-4 0  9997
2 18153  82.5002  71.0056 0019410 303.3975  56.5383 14.85521581 57025
COSMOS 1867             
1 18187U 87060A   25346.95217717 -.00000008  00000+0  34719-4 0  9991
2 18187  65.0091 189.6079 0013632 271.1329  88.8194 14.31486094  7520
SL-14 R/B               
1 18749U 88001B   25346.98071191  .00000795  00000+0  89282-4 0  9995
2 18749  82.5133 276.9205 0018504 160.3247 199.8687 14.85424465 29153
