CCSDS_OMM_VERS = 2.0
CREATION_DATE  = 
ORIGINATOR     = 

OBJECT_NAME    = SL-14 R/B
OBJECT_ID      = 1986-046B
CENTER_NAME    = EARTH
REF_FRAME      = TEME
TIME_SYSTEM    = UTC
MEAN_ELEMENT_THEORY = SGP/SGP4

EPOCH          = 2025-12-12T23:36:56.374848
MEAN_MOTION    = 14.85485120
ECCENTRICITY   = .00238153
INCLINATION    = 82.4810
RA_OF_ASC_NODE = 162.0835
ARG_OF_PERICENTER = 151.4489
MEAN_ANOMALY   = 208.8037

EPHEMERIS_TYPE = 0
CLASSIFICATION_TYPE = U
NORAD_CAT_ID   = 16792
ELEMENT_SET_NO = 999
REV_AT_EPOCH   = 11353
BSTAR          = .935543E-4
MEAN_MOTION_DOT = .835E-5
MEAN_MOTION_DDOT = 0

CCSDS_OMM_VERS = 2.0
CREATION_DATE  = 
ORIGINATOR     = 

OBJECT_NAME    = SL-14 R/B
OBJECT_ID      = 1986-055B
CENTER_NAME    = EARTH
REF_FRAME      = TEME
TIME_SYSTEM    = UTC
MEAN_ELEMENT_THEORY = SGP/SGP4

EPOCH          = 2025-12-12T23:50:27.264768
MEAN_MOTION    = 14.85531352
ECCENTRICITY   = .00174776
INCLINATION    = 82.5203
RA_OF_ASC_NODE = 208.1346
ARG_OF_PERICENTER = 258.5076
MEAN_ANOMALY   = 222.4206

EPHEMERIS_TYPE = 0
CLASSIFICATION_TYPE = U
NORAD_CAT_ID   = 16882
ELEMENT_SET_NO = 999
REV_AT_EPOCH   = 10649
BSTAR          = .80090965E-4
MEAN_MOTION_DOT = .717E-5
MEAN_MOTION_DDOT = 0

CCSDS_OMM_VERS = 2.0
CREATION_DATE  = 
ORIGINATOR     = 

OBJECT_NAME    = AJISAI (EGS)
OBJECT_ID      = 1986-061A
CENTER_NAME    = EARTH
REF_FRAME      = TEME
TIME_SYSTEM    = UTC
MEAN_ELEMENT_THEORY = SGP/SGP4

EPOCH          = 2025-12-13T00:15:43.576992
MEAN_MOTION    = 12.44514291
ECCENTRICITY   = .00112927
INCLINATION    = 50.0113
RA_OF_ASC_NODE = 359.8833
ARG_OF_PERICENTER = 66.5740
MEAN_ANOMALY   = 123.6113

EPHEMERIS_TYPE = 0
CLASSIFICATION_TYPE = U
NORAD_CAT_ID   = 16908
ELEMENT_SET_NO = 999
REV_AT_EPOCH   = 45720
BSTAR          = .77907091E-4
MEAN_MOTION_DOT = -.86E-6
MEAN_MOTION_DDOT = 0

CCSDS_OMM_VERS = 2.0
CREATION_DATE  = 
ORIGINATOR     = 

OBJECT_NAME    = COSMOS 1812
OBJECT_ID      = 1987-003A
CENTER_NAME    = EARTH
REF_FRAME      = TEME
TIME_SYSTEM    = UTC
MEAN_ELEMENT_THEORY = SGP/SGP4

EPOCH          = 2025-12-12T22:06:12.855168
MEAN_MOTION    = 15.75550147
ECCENTRICITY   = .00072105
INCLINATION    = 82.4866
RA_OF_ASC_NODE = 291.8204
ARG_OF_PERICENTER = 86.9311
MEAN_ANOMALY   = 273.2779

EPHEMERIS_TYPE = 0
CLASSIFICATION_TYPE = U
NORAD_CAT_ID   = 17295
ELEMENT_SET_NO = 999
REV_AT_EPOCH   = 13068
BSTAR          = .82685513E-3
MEAN_MOTION_DOT = .127296E-2
MEAN_MOTION_DDOT = 0

CCSDS_OMM_VERS = 2.0
CREATION_DATE  = 
ORIGINATOR     = 

OBJECT_NAME    = SL-14 R/B
OBJECT_ID      = 1987-024B
CENTER_NAME    = EARTH
REF_FRAME      = TEME
TIME_SYSTEM    = UTC
MEAN_ELEMENT_THEORY = SGP/SGP4

EPOCH          = 2025-12-12T23:33:20.719584
MEAN_MOTION    = 14.86023971
ECCENTRICITY   = .00180919
INCLINATION    = 82.5274
RA_OF_ASC_NODE = 174.2274
ARG_OF_PERICENTER = 183.3828
MEAN_ANOMALY   = 176.7269

EPHEMERIS_TYPE = 0
CLASSIFICATION_TYPE = U
NORAD_CAT_ID   = 17567
ELEMENT_SET_NO = 999
REV_AT_EPOCH   = 7525
BSTAR          = .84360732E-4
MEAN_MOTION_DOT = .764E-5
MEAN_MOTION_DDOT = 0

CCSDS_OMM_VERS = 2.0
CREATION_DATE  = 
ORIGINATOR     = 

OBJECT_NAME    = COSMOS 1833
OBJECT_ID      = 1987-027A
CENTER_NAME    = EARTH
REF_FRAME      = TEME
TIME_SYSTEM    = UTC
MEAN_ELEMENT_THEORY = SGP/SGP4

EPOCH          = 2025-12-12T20:37:29.262144
MEAN_MOTION    = 14.13021554
ECCENTRICITY   = .00225338
INCLINATION    = 70.9138
RA_OF_ASC_NODE = 148.5258
ARG_OF_PERICENTER = 331.5529
MEAN_ANOMALY   = 28.4360

EPHEMERIS_TYPE = 0
CLASSIFICATION_TYPE = U
NORAD_CAT_ID   = 17589
ELEMENT_SET_NO = 999
REV_AT_EPOCH   = 99804
BSTAR          = .11651221E-3
MEAN_MOTION_DOT = .17E-5
MEAN_MOTION_DDOT = 0

CCSDS_OMM_VERS = 2.0
CREATION_DATE  = 
ORIGINATOR     = 

OBJECT_NAME    = SL-16 R/B
OBJECT_ID      = 1987-027B
CENTER_NAME    = EARTH
REF_FRAME      = TEME
TIME_SYSTEM    = UTC
MEAN_ELEMENT_THEORY = SGP/SGP4

EPOCH          = 2025-12-12T17:33:53.704512
MEAN_MOTION    = 14.17152154
ECCENTRICITY   = .00074046
INCLINATION    = 71.0029
RA_OF_ASC_NODE = 99.7346
ARG_OF_PERICENTER = 259.4131
MEAN_ANOMALY   = 100.6159

EPHEMERIS_TYPE = 0
CLASSIFICATION_TYPE = U
NORAD_CAT_ID   = 17590
ELEMENT_SET_NO = 999
REV_AT_EPOCH   = 302
BSTAR          = .42206879E-4
MEAN_MOTION_DOT = .37E-6
MEAN_MOTION_DDOT = 0

CCSDS_OMM_VERS = 2.0
CREATION_DATE  = 
ORIGINATOR     = 

OBJECT_NAME    = SL-14 R/B
OBJECT_ID      = 1987-038B
CENTER_NAME    = EARTH
REF_FRAME      = TEME
TIME_SYSTEM    = UTC
MEAN_ELEMENT_THEORY = SGP/SGP4

EPOCH          = 2025-12-12T19:07:55.168320
MEAN_MOTION    = 14.85261324
ECCENTRICITY   = .00208795
INCLINATION    = 82.5017
RA_OF_ASC_NODE = 18.6470
ARG_OF_PERICENTER = 91.8588
MEAN_ANOMALY   = 268.5020

EPHEMERIS_TYPE = 0
CLASSIFICATION_TYPE = U
NORAD_CAT_ID   = 17912
ELEMENT_SET_NO = 999
REV_AT_EPOCH   = 6633
BSTAR          = .75332532E-4
MEAN_MOTION_DOT = .673E-5
MEAN_MOTION_DDOT = 0

CCSDS_OMM_VERS = 2.0
CREATION_DATE  = 
ORIGINATOR     = 

OBJECT_NAME    = COSMOS 1844
OBJECT_ID      = 1987-041A
CENTER_NAME    = EARTH
REF_FRAME      = TEME
TIME_SYSTEM    = UTC
MEAN_ELEMENT_THEORY = SGP/SGP4

EPOCH          = 2025-12-12T23:40:15.227904
MEAN_MOTION    = 14.14526116
ECCENTRICITY   = .00300723
INCLINATION    = 70.8974
RA_OF_ASC_NODE = 217.0518
ARG_OF_PERICENTER = 156.7405
MEAN_ANOMALY   = 203.5086

EPHEMERIS_TYPE = 0
CLASSIFICATION_TYPE = U
NORAD_CAT_ID   = 17973
ELEMENT_SET_NO = 999
REV_AT_EPOCH   = 99132
BSTAR          = .11793951E-4
MEAN_MOTION_DOT = -.26E-6
MEAN_MOTION_DDOT = 0

CCSDS_OMM_VERS = 2.0
CREATION_DATE  = 
ORIGINATOR     = 

OBJECT_NAME    = SL-14 R/B
OBJECT_ID      = 1987-055B
CENTER_NAME    = EARTH
REF_FRAME      = TEME
TIME_SYSTEM    = UTC
MEAN_ELEMENT_THEORY = SGP/SGP4

EPOCH          = 2025-12-12T17:19:12.262944
MEAN_MOTION    = 14.85521581
ECCENTRICITY   = .001941
INCLINATION    = 82.5002
RA_OF_ASC_NODE = 71.0056
ARG_OF_PERICENTER = 303.3975
MEAN_ANOMALY   = 56.5383

EPHEMERIS_TYPE = 0
CLASSIFICATION_TYPE = U
NORAD_CAT_ID   = 18153
ELEMENT_SET_NO = 999
REV_AT_EPOCH   = 5702
BSTAR          = .91662711E-4
MEAN_MOTION_DOT = .818E-5
MEAN_MOTION_DDOT = 0

CCSDS_OMM_VERS = 2.0
CREATION_DATE  = 
ORIGINATOR     = 

OBJECT_NAME    = COSMOS 1867
OBJECT_ID      = 1987-060A
CENTER_NAME    = EARTH
REF_FRAME      = TEME
TIME_SYSTEM    = UTC
MEAN_ELEMENT_THEORY = SGP/SGP4

EPOCH          = 2025-12-12T22:51:08.107488
MEAN_MOTION    = 14.31486094
ECCENTRICITY   = .0013632
INCLINATION    = 65.0091
RA_OF_ASC_NODE = 189.6079
ARG_OF_PERICENTER = 271.1329
MEAN_ANOMALY   = 88.8194

EPHEMERIS_TYPE = 0
CLASSIFICATION_TYPE = U
NORAD_CAT_ID   = 18187
ELEMENT_SET_NO = 999
REV_AT_EPOCH   = 752
BSTAR          = .34718942E-4
MEAN_MOTION_DOT = -.8E-7
MEAN_MOTION_DDOT = 0

CCSDS_OMM_VERS = 2.0
CREATION_DATE  = 
ORIGINATOR     = 

OBJECT_NAME    = SL-14 R/B
OBJECT_ID      = 1988-001B
CENTER_NAME    = EARTH
REF_FRAME      = TEME
TIME_SYSTEM    = UTC
MEAN_ELEMENT_THEORY = SGP/SGP4

EPOCH          = 2025-12-12T23:32:13.509024
MEAN_MOTION    = 14.85424465
ECCENTRICITY   = .00185046
INCLINATION    = 82.5133
RA_OF_ASC_NODE = 276.9205
ARG_OF_PERICENTER = 160.3247
MEAN_ANOMALY   = 199.8687

EPHEMERIS_TYPE = 0
CLASSIFICATION_TYPE = U
NORAD_CAT_ID   = 18749
ELEMENT_SET_NO = 999
REV_AT_EPOCH   = 2915
BSTAR          = .89281703E-4
MEAN_MOTION_DOT = .795E-5
MEAN_MOTION_DDOT = 0

